NORAD_CAT_ID,OBJECT_NAME,OBJECT_TYPE,EPOCH,MEAN_MOTION,ECCENTRICITY,INCLINATION,RA_OF_ASC_NODE,ARG_OF_PERICENTER,MEAN_ANOMALY,BSTAR,MEAN_MOTION_DOT,MEAN_MOTION_DDOT,TLE_LINE0,TLE_LINE1,TLE_LINE2,SEMIMAJOR_AXIS,PERIOD,APOGEE,PERIGEE,DECAYED
56454.0,STARLINK-5959,PAYLOAD,2024-05-31 13:38:11,14.98332494,0.0002852,69.9997,336.0743,261.4466,98.637,6.7572e-05,7.13e-06,0.0,0 STARLINK-5959,1 56454U 23064G   24152.56818904  .00000713  00000-0  67572-4 0  9996,2 56454  69.9997 336.0743 0002852 261.4466  98.6370 14.98332494 58314,6950.185,96.107,574.032,570.068,0.0
56454.0,STARLINK-5959,PAYLOAD,2024-05-31 20:02:43,14.98332614,0.0002954,69.9994,335.4006,270.3231,89.759,5.3839e-05,5.49e-06,0.0,0 STARLINK-5959,1 56454U 23064G   24152.83522910  .00000549  00000-0  53839-4 0  9993,2 56454  69.9994 335.4006 0002954 270.3231  89.7590 14.98332614 58711,6950.185,96.107,574.103,569.997,0.0
56454.0,STARLINK-5959,PAYLOAD,2024-05-31 21:38:51,14.9833303,0.000295,69.9994,335.2323,270.3875,89.6946,5.7659e-05,5.95e-06,0.0,0 STARLINK-5959,1 56454U 23064G   24152.90198865  .00000595  00000-0  57659-4 0  9994,2 56454  69.9994 335.2323 0002950 270.3875  89.6946 14.98333030 58369,6950.184,96.107,574.099,569.998,0.0
56454.0,STARLINK-5959,PAYLOAD,2024-06-01 13:40:12,14.98328385,0.0002991,69.9995,333.5488,269.473,90.6087,3.1876e-05,2.87e-06,0.0,0 STARLINK-5959,1 56454U 23064G   24153.56959201  .00000287  00000-0  31876-4 0  9997,2 56454  69.9995 333.5488 0002991 269.4730  90.6087 14.98328385 58463,6950.198,96.107,574.142,569.984,0.0
56454.0,STARLINK-5959,PAYLOAD,2024-06-01 20:04:45,14.98327836,0.0002959,69.9994,332.8744,266.0103,94.0718,2.3215e-05,1.84e-06,0.0,0 STARLINK-5959,1 56454U 23064G   24153.83663244  .00000184  00000-0  23215-4 0  9990,2 56454  69.9994 332.8744 0002959 266.0103  94.0718 14.98327836 58863,6950.2,96.107,574.121,570.008,0.0
56454.0,STARLINK-5959,PAYLOAD,2024-06-02 12:06:05,14.98329788,0.0002974,69.9994,331.1908,268.3229,91.7589,5.3176e-05,5.42e-06,0.0,0 STARLINK-5959,1 56454U 23064G   24154.50423077  .00000542  00000-0  53176-4 0  9990,2 56454  69.9994 331.1908 0002974 268.3229  91.7589 14.98329788 58608,6950.194,96.107,574.126,569.992,0.0
56454.0,STARLINK-5959,PAYLOAD,2024-06-03 12:08:06,14.98331553,0.0003004,69.9995,328.6657,267.9247,92.1568,9.0942e-05,9.92e-06,0.0,0 STARLINK-5959,1 56454U 23064G   24155.50562905  .00000992  00000-0  90942-4 0  9996,2 56454  69.9995 328.6657 0003004 267.9247  92.1568 14.98331553 59113,6950.188,96.107,574.141,569.965,0.0
56454.0,STARLINK-5959,PAYLOAD,2024-06-03 18:32:38,14.98335112,0.0003105,69.9993,327.9931,269.0781,91.0022,0.00010436,1.153e-05,0.0,0 STARLINK-5959,1 56454U 23064G   24155.77266634  .00001153  00000-0  10436-3 0  9994,2 56454  69.9993 327.9931 0003105 269.0781  91.0022 14.98335112 58797,6950.177,96.107,574.2,569.884,0.0
56454.0,STARLINK-5959,PAYLOAD,2024-06-04 04:09:26,14.98340682,0.0003091,69.9996,326.9832,269.9053,90.1752,-2.4633e-05,-3.87e-06,0.0,0 STARLINK-5959,1 56454U 23064G   24156.17322469 -.00000387  00000-0 -24633-4 0  9993,2 56454  69.9996 326.9832 0003091 269.9053  90.1752 14.98340682 58859,6950.16,96.106,574.173,569.877,0.0
56454.0,STARLINK-5959,PAYLOAD,2024-06-04 21:46:55,14.98335018,0.0003144,70.0005,325.1306,276.4211,83.659,7.7258e-05,8.29e-06,0.0,0 STARLINK-5959,1 56454U 23064G   24156.90758505  .00000829  00000-0  77258-4 0  9998,2 56454  70.0005 325.1306 0003144 276.4211  83.6590 14.98335018 58964,6950.177,96.107,574.228,569.857,0.0
56454.0,STARLINK-5959,PAYLOAD,2024-06-05 04:11:27,14.9832295,0.0003015,69.9978,324.455,277.4906,82.591,0.00022061,2.54e-05,0.0,0 STARLINK-5959,1 56454U 23064G   24157.17462587  .00002540  00000-0  22061-3 0  9993,2 56454  69.9978 324.4550 0003015 277.4906  82.5910 14.98322950 59362,6950.215,96.107,574.175,569.984,0.0
56454.0,STARLINK-5959,PAYLOAD,2024-06-05 12:12:09,14.98321891,0.000297,69.9996,323.6157,272.2241,87.8578,-0.00011574,-1.473e-05,0.0,0 STARLINK-5959,1 56454U 23064G   24157.50843851 -.00001473  00000-0 -11574-3 0  9990,2 56454  69.9996 323.6157 0002970 272.2241  87.8578 14.98321891 59417,6950.218,96.108,574.147,570.019,0.0
56454.0,STARLINK-5959,PAYLOAD,2024-06-05 21:48:57,14.98326205,0.0002807,69.9998,322.6063,270.4287,89.655,-5.6186e-05,-7.63e-06,0.0,0 STARLINK-5959,1 56454U 23064G   24157.90899557 -.00000763  00000-0 -56186-4 0  9998,2 56454  69.9998 322.6063 0002807 270.4287  89.6550 14.98326205 59114,6950.205,96.107,574.021,570.119,0.0
56454.0,STARLINK-5959,PAYLOAD,2024-06-06 04:13:29,14.9832906,0.0002962,69.9992,321.932,272.6696,87.4124,1.7578e-05,1.17e-06,0.0,0 STARLINK-5959,1 56454U 23064G   24158.17603214  .00000117  00000-0  17578-4 0  9994,2 56454  69.9992 321.9320 0002962 272.6696  87.4124 14.98329060 59515,6950.196,96.107,574.119,570.002,0.0
56454.0,STARLINK-5959,PAYLOAD,2024-06-06 12:14:09,14.98332554,0.0002867,69.9993,321.0912,271.6349,88.4482,4.6576e-05,4.63e-06,0.0,0 STARLINK-5959,1 56454U 23064G   24158.50982996  .00000463  00000-0  46576-4 0  9992,2 56454  69.9993 321.0912 0002867 271.6349  88.4482 14.98332554 59208,6950.185,96.107,574.043,570.057,0.0
56454.0,STARLINK-5959,PAYLOAD,2024-06-06 17:02:33,14.98333975,0.0002888,69.9995,320.5865,265.1236,94.9594,0.00011482,1.277e-05,0.0,0 STARLINK-5959,1 56454U 23064G   24158.71010713  .00001277  00000-0  11482-3 0  9995,2 56454  69.9995 320.5865 0002888 265.1236  94.9594 14.98333975 59593,6950.181,96.107,574.053,570.038,0.0
56454.0,STARLINK-5959,PAYLOAD,2024-06-07 20:16:50,14.98333765,0.000295,69.999,317.724,268.0168,92.0654,0.00018949,2.169e-05,0.0,0 STARLINK-5959,1 56454U 23064G   24159.84502703  .00002169  00000-0  18949-3 0  9991,2 56454  69.9990 317.7240 0002950 268.0168  92.0654 14.98333765 59761,6950.181,96.107,574.097,569.996,0.0
56454.0,STARLINK-5959,PAYLOAD,2024-06-08 12:18:10,14.98331397,0.0002947,69.9984,316.0401,267.1935,92.8887,0.00021149,2.431e-05,0.0,0 STARLINK-5959,1 56454U 23064G   24160.51262667  .00002431  00000-0  21149-3 0  9997,2 56454  69.9984 316.0401 0002947 267.1935  92.8887 14.98331397 59500,6950.189,96.107,574.102,570.005,0.0
56454.0,STARLINK-5959,PAYLOAD,2024-06-08 18:42:42,14.98342005,0.0002958,69.9979,315.3677,270.3439,89.7381,0.00011281,1.254e-05,0.0,0 STARLINK-5959,1 56454U 23064G   24160.77966059  .00001254  00000-0  11281-3 0  9999,2 56454  69.9979 315.3677 0002958 270.3439  89.7381 14.98342005 59544,6950.156,96.106,574.077,569.965,0.0
56454.0,STARLINK-5959,PAYLOAD,2024-06-09 12:20:12,14.98326569,0.0002689,69.9997,313.5153,268.0765,92.0086,-7.2782e-06,-1.8e-06,0.0,0 STARLINK-5959,1 56454U 23064G   24161.51403274 -.00000180  00000-0 -72782-5 0  9991,2 56454  69.9997 313.5153 0002689 268.0765  92.0086 14.98326569 60010,6950.204,96.107,573.937,570.2,0.0
56454.0,STARLINK-5959,PAYLOAD,2024-06-09 17:08:36,14.98327903,0.0002756,69.9994,313.0096,270.8526,89.2317,-2.7932e-05,-4.26e-06,0.0,0 STARLINK-5959,1 56454U 23064G   24161.71431252 -.00000426  00000-0 -27932-4 0  9999,2 56454  69.9994 313.0096 0002756 270.8526  89.2317 14.98327903 59688,6950.199,96.107,573.98,570.149,0.0
56454.0,STARLINK-5959,PAYLOAD,2024-06-10 12:22:12,14.98334779,0.0003005,69.9994,310.9899,270.6557,89.4258,4.0706e-05,3.93e-06,0.0,0 STARLINK-5959,1 56454U 23064G   24162.51542639  .00000393  00000-0  40706-4 0  9995,2 56454  69.9994 310.9899 0003005 270.6557  89.4258 14.98334779 60165,6950.178,96.107,574.132,569.955,0.0
56454.0,STARLINK-5959,PAYLOAD,2024-06-10 13:58:20,14.98335436,0.0003009,69.9996,310.8217,270.8237,89.2577,5.6758e-05,5.84e-06,0.0,0 STARLINK-5959,1 56454U 23064G   24162.58218559  .00000584  00000-0  56758-4 0  9999,2 56454  69.9996 310.8217 0003009 270.8237  89.2577 14.98335436 59814,6950.176,96.107,574.132,569.95,0.0
56454.0,STARLINK-5959,PAYLOAD,2024-06-10 18:46:44,14.98341844,0.0003055,69.9998,310.3167,273.5354,86.5455,0.00010404,1.149e-05,0.0,0 STARLINK-5959,1 56454U 23064G   24162.78246008  .00001149  00000-0  10404-3 0  9996,2 56454  69.9998 310.3167 0003055 273.5354  86.5455 14.98341844 60206,6950.156,96.106,574.145,569.898,0.0
56454.0,STARLINK-5959,PAYLOAD,2024-06-11 14:00:22,14.98324922,0.0002917,70.0003,308.2987,266.1455,93.937,0.00013765,1.55e-05,0.0,0 STARLINK-5959,1 56454U 23064G   24163.58359011  .00001550  00000-0  13765-3 0  9993,2 56454  70.0003 308.2987 0002917 266.1455  93.9370 14.98324922 59965,6950.209,96.107,574.101,570.046,0.0
56454.0,STARLINK-5959,PAYLOAD,2024-06-11 18:48:45,14.98331379,0.0002854,70.0002,307.7938,265.4069,94.6764,0.00020639,2.371e-05,0.0,0 STARLINK-5959,1 56454U 23064G   24163.78386519  .00002371  00000-0  20639-3 0  9998,2 56454  70.0002 307.7938 0002854 265.4069  94.6764 14.98331379 60351,6950.189,96.107,574.037,570.07,0.0
56454.0,STARLINK-5959,PAYLOAD,2024-06-12 12:26:15,14.98328899,0.0002661,70.0008,305.9432,260.1346,99.9513,-8.6104e-05,-1.12e-05,0.0,0 STARLINK-5959,1 56454U 23064G   24164.51823241 -.00001120  00000-0 -86104-4 0  9991,2 56454  70.0008 305.9432 0002661 260.1346  99.9513 14.98328899 60467,6950.196,96.107,573.911,570.212,0.0
56454.0,STARLINK-5959,PAYLOAD,2024-06-12 18:50:47,14.98318427,0.0002705,70.0006,305.2686,265.687,94.398,5.1307e-05,5.19e-06,0.0,0 STARLINK-5959,1 56454U 23064G   24164.78527668  .00000519  00000-0  51307-4 0  9990,2 56454  70.0006 305.2686 0002705 265.6870  94.3980 14.98318427 60148,6950.229,96.108,573.974,570.214,0.0
56454.0,STARLINK-5959,PAYLOAD,2024-06-13 12:28:15,14.98331947,0.0002935,69.9996,303.4161,271.1474,88.9348,0.0001196,1.334e-05,0.0,0 STARLINK-5959,1 56454U 23064G   24165.51962547  .00001334  00000-0  11960-3 0  9997,2 56454  69.9996 303.4161 0002935 271.1474  88.9348 14.98331947 60619,6950.187,96.107,574.092,570.012,0.0
56454.0,STARLINK-5959,PAYLOAD,2024-06-13 14:04:23,14.98331663,0.0002941,69.9996,303.2477,271.1169,88.9653,0.00011645,1.297e-05,0.0,0 STARLINK-5959,1 56454U 23064G   24165.58638577  .00001297  00000-0  11645-3 0  9995,2 56454  69.9996 303.2477 0002941 271.1169  88.9653 14.98331663 60260,6950.188,96.107,574.097,570.009,0.0
